XRISM                   
1 57800U 23137A   24215.29816159  .00006678  00000+0  49429-3 0  9998
2 57800  31.0033  78.9737 0009976 306.9207  53.0515 15.01743076 49546
